CCSDS_OMM_VERS = 2.0
CREATION_DATE  = 
ORIGINATOR     = 

OBJECT_NAME    = SL-3 R/B
OBJECT_ID      = 1982-039B
CENTER_NAME    = EARTH
REF_FRAME      = TEME
TIME_SYSTEM    = UTC
MEAN_ELEMENT_THEORY = SGP/SGP4

EPOCH          = 2025-11-08T04:00:39.714048
MEAN_MOTION    = 15.09238442
ECCENTRICITY   = .0032501
INCLINATION    = 81.1806
RA_OF_ASC_NODE = 355.8477
ARG_OF_PERICENTER = 5.1442
MEAN_ANOMALY   = 355.0110

EPHEMERIS_TYPE = 0
CLASSIFICATION_TYPE = U
NORAD_CAT_ID   = 13154
ELEMENT_SET_NO = 999
REV_AT_EPOCH   = 36330
BSTAR          = .21841E-3
MEAN_MOTION_DOT = .354E-4
MEAN_MOTION_DDOT = 0

CCSDS_OMM_VERS = 2.0
CREATION_DATE  = 
ORIGINATOR     = 

OBJECT_NAME    = SL-3 R/B
OBJECT_ID      = 1982-079B
CENTER_NAME    = EARTH
REF_FRAME      = TEME
TIME_SYSTEM    = UTC
MEAN_ELEMENT_THEORY = SGP/SGP4

EPOCH          = 2025-11-08T03:06:31.472352
MEAN_MOTION    = 15.23043076
ECCENTRICITY   = .0025025
INCLINATION    = 81.1468
RA_OF_ASC_NODE = 336.4468
ARG_OF_PERICENTER = 214.1924
MEAN_ANOMALY   = 145.7698

EPHEMERIS_TYPE = 0
CLASSIFICATION_TYPE = U
NORAD_CAT_ID   = 13403
ELEMENT_SET_NO = 999
REV_AT_EPOCH   = 35918
BSTAR          = .29137E-3
MEAN_MOTION_DOT = .6944E-4
MEAN_MOTION_DDOT = 0

CCSDS_OMM_VERS = 2.0
CREATION_DATE  = 
ORIGINATOR     = 

OBJECT_NAME    = SL-14 R/B
OBJECT_ID      = 1982-092B
CENTER_NAME    = EARTH
REF_FRAME      = TEME
TIME_SYSTEM    = UTC
MEAN_ELEMENT_THEORY = SGP/SGP4

EPOCH          = 2025-11-07T22:45:25.750080
MEAN_MOTION    = 14.86493528
ECCENTRICITY   = .0020148
INCLINATION    = 82.5672
RA_OF_ASC_NODE = 255.2470
ARG_OF_PERICENTER = 349.9085
MEAN_ANOMALY   = 76.4156

EPHEMERIS_TYPE = 0
CLASSIFICATION_TYPE = U
NORAD_CAT_ID   = 13553
ELEMENT_SET_NO = 999
REV_AT_EPOCH   = 31084
BSTAR          = .10539E-3
MEAN_MOTION_DOT = .959E-5
MEAN_MOTION_DDOT = 0

CCSDS_OMM_VERS = 2.0
CREATION_DATE  = 
ORIGINATOR     = 

OBJECT_NAME    = SL-3 R/B
OBJECT_ID      = 1983-010B
CENTER_NAME    = EARTH
REF_FRAME      = TEME
TIME_SYSTEM    = UTC
MEAN_ELEMENT_THEORY = SGP/SGP4

EPOCH          = 2025-11-08T00:12:34.485408
MEAN_MOTION    = 15.42189518
ECCENTRICITY   = .0018425
INCLINATION    = 81.1023
RA_OF_ASC_NODE = 150.9721
ARG_OF_PERICENTER = 108.9373
MEAN_ANOMALY   = 251.3869

EPHEMERIS_TYPE = 0
CLASSIFICATION_TYPE = U
NORAD_CAT_ID   = 13819
ELEMENT_SET_NO = 999
REV_AT_EPOCH   = 33916
BSTAR          = .37787E-3
MEAN_MOTION_DOT = .16347E-3
MEAN_MOTION_DDOT = 0

CCSDS_OMM_VERS = 2.0
CREATION_DATE  = 
ORIGINATOR     = 

OBJECT_NAME    = SL-3 R/B
OBJECT_ID      = 1983-075B
CENTER_NAME    = EARTH
REF_FRAME      = TEME
TIME_SYSTEM    = UTC
MEAN_ELEMENT_THEORY = SGP/SGP4

EPOCH          = 2025-11-08T02:54:48.546144
MEAN_MOTION    = 15.35117608
ECCENTRICITY   = .0021585
INCLINATION    = 97.6101
RA_OF_ASC_NODE = 307.4687
ARG_OF_PERICENTER = 307.5525
MEAN_ANOMALY   = 52.3756

EPHEMERIS_TYPE = 0
CLASSIFICATION_TYPE = U
NORAD_CAT_ID   = 14208
ELEMENT_SET_NO = 999
REV_AT_EPOCH   = 31148
BSTAR          = .44145E-3
MEAN_MOTION_DOT = .15085E-3
MEAN_MOTION_DDOT = 0

CCSDS_OMM_VERS = 2.0
CREATION_DATE  = 
ORIGINATOR     = 

OBJECT_NAME    = COSMOS 1536
OBJECT_ID      = 1984-013A
CENTER_NAME    = EARTH
REF_FRAME      = TEME
TIME_SYSTEM    = UTC
MEAN_ELEMENT_THEORY = SGP/SGP4

EPOCH          = 2025-11-07T20:02:55.485024
MEAN_MOTION    = 15.21896527
ECCENTRICITY   = .0015256
INCLINATION    = 82.5475
RA_OF_ASC_NODE = 228.7586
ARG_OF_PERICENTER = 359.1643
MEAN_ANOMALY   = 0.9564

EPHEMERIS_TYPE = 0
CLASSIFICATION_TYPE = U
NORAD_CAT_ID   = 14699
ELEMENT_SET_NO = 999
REV_AT_EPOCH   = 25407
BSTAR          = .50338E-3
MEAN_MOTION_DOT = .11528E-3
MEAN_MOTION_DDOT = 0

CCSDS_OMM_VERS = 2.0
CREATION_DATE  = 
ORIGINATOR     = 

OBJECT_NAME    = SL-14 R/B
OBJECT_ID      = 1984-027B
CENTER_NAME    = EARTH
REF_FRAME      = TEME
TIME_SYSTEM    = UTC
MEAN_ELEMENT_THEORY = SGP/SGP4

EPOCH          = 2025-11-08T03:26:05.568000
MEAN_MOTION    = 14.85820403
ECCENTRICITY   = .0018494
INCLINATION    = 82.5434
RA_OF_ASC_NODE = 359.0004
ARG_OF_PERICENTER = 20.8787
MEAN_ANOMALY   = 339.3181

EPHEMERIS_TYPE = 0
CLASSIFICATION_TYPE = U
NORAD_CAT_ID   = 14820
ELEMENT_SET_NO = 999
REV_AT_EPOCH   = 22958
BSTAR          = .77982E-4
MEAN_MOTION_DOT = .704E-5
MEAN_MOTION_DDOT = 0

CCSDS_OMM_VERS = 2.0
CREATION_DATE  = 
ORIGINATOR     = 

OBJECT_NAME    = SL-8 R/B
OBJECT_ID      = 1985-006B
CENTER_NAME    = EARTH
REF_FRAME      = TEME
TIME_SYSTEM    = UTC
MEAN_ELEMENT_THEORY = SGP/SGP4

EPOCH          = 2025-11-07T23:29:07.925280
MEAN_MOTION    = 14.37688158
ECCENTRICITY   = .001752
INCLINATION    = 74.0429
RA_OF_ASC_NODE = 125.0876
ARG_OF_PERICENTER = 68.7772
MEAN_ANOMALY   = 89.9954

EPHEMERIS_TYPE = 0
CLASSIFICATION_TYPE = U
NORAD_CAT_ID   = 15483
ELEMENT_SET_NO = 999
REV_AT_EPOCH   = 13653
BSTAR          = .1174E-3
MEAN_MOTION_DOT = .327E-5
MEAN_MOTION_DDOT = 0

CCSDS_OMM_VERS = 2.0
CREATION_DATE  = 
ORIGINATOR     = 

OBJECT_NAME    = SL-12 R/B(2)
OBJECT_ID      = 1985-042D
CENTER_NAME    = EARTH
REF_FRAME      = TEME
TIME_SYSTEM    = UTC
MEAN_ELEMENT_THEORY = SGP/SGP4

EPOCH          = 2025-11-08T04:55:53.161824
MEAN_MOTION    = 14.21935004
ECCENTRICITY   = .003707
INCLINATION    = 71.1089
RA_OF_ASC_NODE = 344.3796
ARG_OF_PERICENTER = 312.1477
MEAN_ANOMALY   = 110.2593

EPHEMERIS_TYPE = 0
CLASSIFICATION_TYPE = U
NORAD_CAT_ID   = 15772
ELEMENT_SET_NO = 999
REV_AT_EPOCH   = 9712
BSTAR          = .11513E-3
MEAN_MOTION_DOT = .208E-5
MEAN_MOTION_DDOT = 0

CCSDS_OMM_VERS = 2.0
CREATION_DATE  = 
ORIGINATOR     = 

OBJECT_NAME    = SL-14 R/B
OBJECT_ID      = 1985-069B
CENTER_NAME    = EARTH
REF_FRAME      = TEME
TIME_SYSTEM    = UTC
MEAN_ELEMENT_THEORY = SGP/SGP4

EPOCH          = 2025-11-08T00:43:10.979616
MEAN_MOTION    = 14.86261439
ECCENTRICITY   = .0017584
INCLINATION    = 82.5248
RA_OF_ASC_NODE = 139.3358
ARG_OF_PERICENTER = 232.7948
MEAN_ANOMALY   = 127.1664

EPHEMERIS_TYPE = 0
CLASSIFICATION_TYPE = U
NORAD_CAT_ID   = 15945
ELEMENT_SET_NO = 999
REV_AT_EPOCH   = 15476
BSTAR          = .82138E-4
MEAN_MOTION_DOT = .748E-5
MEAN_MOTION_DDOT = 0

CCSDS_OMM_VERS = 2.0
CREATION_DATE  = 
ORIGINATOR     = 

OBJECT_NAME    = SL-16 R/B
OBJECT_ID      = 1985-097B
CENTER_NAME    = EARTH
REF_FRAME      = TEME
TIME_SYSTEM    = UTC
MEAN_ELEMENT_THEORY = SGP/SGP4

EPOCH          = 2025-11-07T23:43:50.834784
MEAN_MOTION    = 14.16576240
ECCENTRICITY   = .0005085
INCLINATION    = 71.0047
RA_OF_ASC_NODE = 36.7621
ARG_OF_PERICENTER = 77.2376
MEAN_ANOMALY   = 95.0558

EPHEMERIS_TYPE = 0
CLASSIFICATION_TYPE = U
NORAD_CAT_ID   = 16182
ELEMENT_SET_NO = 999
REV_AT_EPOCH   = 6999
BSTAR          = -.66047E-4
MEAN_MOTION_DOT = -.18E-5
MEAN_MOTION_DDOT = 0

CCSDS_OMM_VERS = 2.0
CREATION_DATE  = 
ORIGINATOR     = 

OBJECT_NAME    = SL-14 R/B
OBJECT_ID      = 1986-006B
CENTER_NAME    = EARTH
REF_FRAME      = TEME
TIME_SYSTEM    = UTC
MEAN_ELEMENT_THEORY = SGP/SGP4

EPOCH          = 2025-11-07T21:38:39.007104
MEAN_MOTION    = 14.86598492
ECCENTRICITY   = .007574
INCLINATION    = 82.5296
RA_OF_ASC_NODE = 14.3276
ARG_OF_PERICENTER = 317.2766
MEAN_ANOMALY   = 42.2577

EPHEMERIS_TYPE = 0
CLASSIFICATION_TYPE = U
NORAD_CAT_ID   = 16496
ELEMENT_SET_NO = 999
REV_AT_EPOCH   = 13111
BSTAR          = .99155E-4
MEAN_MOTION_DOT = .951E-5
MEAN_MOTION_DDOT = 0

