SL-3 R/B                
1 13154U 82039B   25312.16712632  .00003540  00000+0  21841-3 0  9997
2 13154  81.1806 355.8477 0032501   5.1442 355.0110 15.09238442363304
SL-3 R/B                
1 13403U 82079B   25312.12953093  .00006944  00000+0  29137-3 0  9999
2 13403  81.1468 336.4468 0025025 214.1924 145.7698 15.23043076359189
SL-14 R/B               
1 13553U 82092B   25311.94821470  .00000959  00000+0  10539-3 0  9998
2 13553  82.5672 255.2470 0020148 349.9085  76.4156 14.86493528310842
SL-3 R/B                
1 13819U 83010B   25312.00873247  .00016347  00000+0  37787-3 0  9993
2 13819  81.1023 150.9721 0018425 108.9373 251.3869 15.42189518339165
SL-3 R/B                
1 14208U 83075B   25312.12139521  .00015085  00000+0  44145-3 0  9994
2 14208  97.6101 307.4687 0021585 307.5525  52.3756 15.35117608311486
COSMOS 1536             
1 14699U 84013A   25311.83536441  .00011528  00000+0  50338-3 0  9999
2 14699  82.5475 228.7586 0015256 359.1643   0.9564 15.21896527254078
SL-14 R/B               
1 14820U 84027B   25312.14312000  .00000704  00000+0  77982-4 0  9997
2 14820  82.5434 359.0004 0018494  20.8787 339.3181 14.85820403229581
SL-8 R/B                
1 15483U 85006B   25311.97856395  .00000327  00000+0  11740-3 0  9991
2 15483  74.0429 125.0876 0017520  68.7772  89.9954 14.37688158136533
SL-12 R/B(2)            
1 15772U 85042D   25312.20547641  .00000208  00000+0  11513-3 0  9996
2 15772  71.1089 344.3796 0037070 312.1477 110.2593 14.21935004 97127
SL-14 R/B               
1 15945U 85069B   25312.02998819  .00000748  00000+0  82138-4 0  9995
2 15945  82.5248 139.3358 0017584 232.7948 127.1664 14.86261439154761
SL-16 R/B               
1 16182U 85097B   25311.98878281 -.00000180  00000+0 -66047-4 0  9997
2 16182  71.0047  36.7621 0005085  77.2376  95.0558 14.16576240 69995
SL-14 R/B               
1 16496U 86006B   25311.90184036  .00000951  00000+0  99155-4 0  9996
2 16496  82.5296  14.3276 0075740 317.2766  42.2577 14.86598492131118
